GLOBALSTAR M023         
1 25621U 99004A   25344.21612338 -.00000082  00000+0  12175-3 0  9991
2 25621  52.0101 237.4260 0010077 151.7288  23.7014 12.62509966237968
GLOBALSTAR M040         
1 25622U 99004B   25344.09326229 -.00000059  00000+0  24974-3 0  9993
2 25622  51.9915 242.2137 0001795  60.5578  78.8392 12.62025019237460
GLOBALSTAR M036         
1 25623U 99004C   25344.20933748 -.00000077  00000+0  91265-4 0  9995
2 25623  51.9943 136.3558 0010882  32.7446 157.0199 11.86618284199878
GLOBALSTAR M038         
1 25624U 99004D   25344.25481391 -.00000051  00000+0  36501-3 0  9996
2 25624  51.9986 284.5127 0002450  56.9186  90.6146 12.32537202224083
GLOBALSTAR M022         
1 25649U 99012A   25344.23338417 -.00000108  00000+0 -24963-3 0  9993
2 25649  52.0005 172.3242 0003271 139.7333  24.3880 12.02507936197550
GLOBALSTAR M041         
1 25650U 99012B   25344.20871716 -.00000067  00000+0  24114-3 0  9997
2 25650  52.0037  59.2076 0000629 311.9658  48.1125 11.96681285199351
GLOBALSTAR M046         
1 25651U 99012C   25344.28572333 -.00000195  00000+0 -11703-2 0  9991
2 25651  52.0042 115.8866 0001492 216.1099 145.6870 12.09417329204974
GLOBALSTAR M037         
1 25652U 99012D   25344.32518084 -.00000029  00000+0  41601-3 0  9996
2 25652  52.0025   7.6459 0001938 210.0557 163.2398 12.62458043233520
